2026-023E               
1 67678U 26023E   26045.25930848  .00012853  00000+0  55525-3 0  9996
2 67678  96.6369 120.9250 0018677 208.3436 151.6788 15.22437021  1283
2026-023F               
1 67679U 26023F   26045.25851322  .00012434  00000+0  53461-3 0  9998
2 67679  96.6374 123.4214 0020671 202.9595 157.0722 15.22566780  1273
2026-023G               
1 67680U 26023G   26044.79866101  .00003662  00000+0  15944-3 0  9996
2 67680  96.6303 123.0164 0022387 201.1706 158.8609 15.22519445  1200
2026-023H               
1 67681U 26023H   26045.12709678  .00004338  00000+0  18830-3 0  9998
2 67681  96.6447 123.3015 0022232 199.3589 160.6808 15.22542865  1253
2026-023J               
1 67682U 26023J   26045.25837094  .00012414  00000+0  53259-3 0  9995
2 67682  96.6403 123.4319 0022462 195.5519 164.5032 15.22604160  1271
ISS OBJECT XZ           
1 67683U 98067XZ  26045.27192640  .00041719  00000+0  73561-3 0  9994
2 67683  51.6301 188.0321 0010630 110.4640 249.7491 15.49925317  1156
GXIBA-1                 
1 67684U 98067YA  26045.26865816  .00075008  00000+0  12728-2 0  9991
2 67684  51.6304 188.0125 0012360 104.2585 255.9778 15.50730945  1153
CORAL                   
1 67685U 98067YB  26045.27126273  .00044668  00000+0  78218-3 0  9995
2 67685  51.6301 188.0281 0012562 106.0174 254.2200 15.50065759  1158
ISS OBJECT YC           
1 67686U 98067YC  26045.27070141  .00052245  00000+0  90918-3 0  9999
2 67686  51.6307 188.0255 0007758  80.7495 279.4371 15.50225641  1157
LEOPARD                 
1 67687U 98067YD  26045.27153491  .00042208  00000+0  74266-3 0  9996
2 67687  51.6306 188.0303 0007827  82.6227 277.5652 15.50007453  1073
ISS OBJECT YE           
1 67688U 98067YE  26045.27089425  .00048863  00000+0  85324-3 0  9992
2 67688  51.6308 188.0270 0007740  81.3262 278.8604 15.50158147  1076
PRC TEST SPACECRAFT 4   
1 67689U 26024A   26045.24774769 -.00000023  00000+0  21788-4 0  9998
2 67689  49.9853 132.8131 0006212 269.3773  90.6457 14.91671582  1087
