CCSDS_OMM_VERS = 2.0
CREATION_DATE  = 
ORIGINATOR     = 

OBJECT_NAME    = 2026-023E
OBJECT_ID      = 2026-023E
CENTER_NAME    = EARTH
REF_FRAME      = TEME
TIME_SYSTEM    = UTC
MEAN_ELEMENT_THEORY = SGP/SGP4

EPOCH          = 2026-02-14T06:13:24.252672
MEAN_MOTION    = 15.22437021
ECCENTRICITY   = .0018677
INCLINATION    = 96.6369
RA_OF_ASC_NODE = 120.9250
ARG_OF_PERICENTER = 208.3436
MEAN_ANOMALY   = 151.6788

EPHEMERIS_TYPE = 0
CLASSIFICATION_TYPE = U
NORAD_CAT_ID   = 67678
ELEMENT_SET_NO = 999
REV_AT_EPOCH   = 128
BSTAR          = .555246E-3
MEAN_MOTION_DOT = .12853E-3
MEAN_MOTION_DDOT = 0

CCSDS_OMM_VERS = 2.0
CREATION_DATE  = 
ORIGINATOR     = 

OBJECT_NAME    = 2026-023F
OBJECT_ID      = 2026-023F
CENTER_NAME    = EARTH
REF_FRAME      = TEME
TIME_SYSTEM    = UTC
MEAN_ELEMENT_THEORY = SGP/SGP4

EPOCH          = 2026-02-14T06:12:15.542208
MEAN_MOTION    = 15.22566780
ECCENTRICITY   = .00206712
INCLINATION    = 96.6374
RA_OF_ASC_NODE = 123.4214
ARG_OF_PERICENTER = 202.9595
MEAN_ANOMALY   = 157.0722

EPHEMERIS_TYPE = 0
CLASSIFICATION_TYPE = U
NORAD_CAT_ID   = 67679
ELEMENT_SET_NO = 999
REV_AT_EPOCH   = 127
BSTAR          = .53460802E-3
MEAN_MOTION_DOT = .12434E-3
MEAN_MOTION_DDOT = 0

CCSDS_OMM_VERS = 2.0
CREATION_DATE  = 
ORIGINATOR     = 

OBJECT_NAME    = 2026-023G
OBJECT_ID      = 2026-023G
CENTER_NAME    = EARTH
REF_FRAME      = TEME
TIME_SYSTEM    = UTC
MEAN_ELEMENT_THEORY = SGP/SGP4

EPOCH          = 2026-02-13T19:10:04.311264
MEAN_MOTION    = 15.22519445
ECCENTRICITY   = .00223871
INCLINATION    = 96.6303
RA_OF_ASC_NODE = 123.0164
ARG_OF_PERICENTER = 201.1706
MEAN_ANOMALY   = 158.8609

EPHEMERIS_TYPE = 0
CLASSIFICATION_TYPE = U
NORAD_CAT_ID   = 67680
ELEMENT_SET_NO = 999
REV_AT_EPOCH   = 120
BSTAR          = .15943755E-3
MEAN_MOTION_DOT = .3662E-4
MEAN_MOTION_DDOT = 0

CCSDS_OMM_VERS = 2.0
CREATION_DATE  = 
ORIGINATOR     = 

OBJECT_NAME    = 2026-023H
OBJECT_ID      = 2026-023H
CENTER_NAME    = EARTH
REF_FRAME      = TEME
TIME_SYSTEM    = UTC
MEAN_ELEMENT_THEORY = SGP/SGP4

EPOCH          = 2026-02-14T03:03:01.161792
MEAN_MOTION    = 15.22542865
ECCENTRICITY   = .00222321
INCLINATION    = 96.6447
RA_OF_ASC_NODE = 123.3015
ARG_OF_PERICENTER = 199.3589
MEAN_ANOMALY   = 160.6808

EPHEMERIS_TYPE = 0
CLASSIFICATION_TYPE = U
NORAD_CAT_ID   = 67681
ELEMENT_SET_NO = 999
REV_AT_EPOCH   = 125
BSTAR          = .18830388E-3
MEAN_MOTION_DOT = .4338E-4
MEAN_MOTION_DDOT = 0

CCSDS_OMM_VERS = 2.0
CREATION_DATE  = 
ORIGINATOR     = 

OBJECT_NAME    = 2026-023J
OBJECT_ID      = 2026-023J
CENTER_NAME    = EARTH
REF_FRAME      = TEME
TIME_SYSTEM    = UTC
MEAN_ELEMENT_THEORY = SGP/SGP4

EPOCH          = 2026-02-14T06:12:03.249216
MEAN_MOTION    = 15.22604160
ECCENTRICITY   = .00224624
INCLINATION    = 96.6403
RA_OF_ASC_NODE = 123.4319
ARG_OF_PERICENTER = 195.5519
MEAN_ANOMALY   = 164.5032

EPHEMERIS_TYPE = 0
CLASSIFICATION_TYPE = U
NORAD_CAT_ID   = 67682
ELEMENT_SET_NO = 999
REV_AT_EPOCH   = 127
BSTAR          = .5325913E-3
MEAN_MOTION_DOT = .12414E-3
MEAN_MOTION_DDOT = 0

CCSDS_OMM_VERS = 2.0
CREATION_DATE  = 
ORIGINATOR     = 

OBJECT_NAME    = ISS OBJECT XZ
OBJECT_ID      = 1998-067XZ
CENTER_NAME    = EARTH
REF_FRAME      = TEME
TIME_SYSTEM    = UTC
MEAN_ELEMENT_THEORY = SGP/SGP4

EPOCH          = 2026-02-14T06:31:34.440960
MEAN_MOTION    = 15.49925317
ECCENTRICITY   = .00106306
INCLINATION    = 51.6301
RA_OF_ASC_NODE = 188.0321
ARG_OF_PERICENTER = 110.4640
MEAN_ANOMALY   = 249.7491

EPHEMERIS_TYPE = 0
CLASSIFICATION_TYPE = U
NORAD_CAT_ID   = 67683
ELEMENT_SET_NO = 999
REV_AT_EPOCH   = 115
BSTAR          = .73560977E-3
MEAN_MOTION_DOT = .41719E-3
MEAN_MOTION_DDOT = 0

CCSDS_OMM_VERS = 2.0
CREATION_DATE  = 
ORIGINATOR     = 

OBJECT_NAME    = GXIBA-1
OBJECT_ID      = 1998-067YA
CENTER_NAME    = EARTH
REF_FRAME      = TEME
TIME_SYSTEM    = UTC
MEAN_ELEMENT_THEORY = SGP/SGP4

EPOCH          = 2026-02-14T06:26:52.065024
MEAN_MOTION    = 15.50730945
ECCENTRICITY   = .00123607
INCLINATION    = 51.6304
RA_OF_ASC_NODE = 188.0125
ARG_OF_PERICENTER = 104.2585
MEAN_ANOMALY   = 255.9778

EPHEMERIS_TYPE = 0
CLASSIFICATION_TYPE = U
NORAD_CAT_ID   = 67684
ELEMENT_SET_NO = 999
REV_AT_EPOCH   = 115
BSTAR          = .12727836E-2
MEAN_MOTION_DOT = .75008E-3
MEAN_MOTION_DDOT = 0

CCSDS_OMM_VERS = 2.0
CREATION_DATE  = 
ORIGINATOR     = 

OBJECT_NAME    = CORAL
OBJECT_ID      = 1998-067YB
CENTER_NAME    = EARTH
REF_FRAME      = TEME
TIME_SYSTEM    = UTC
MEAN_ELEMENT_THEORY = SGP/SGP4

EPOCH          = 2026-02-14T06:30:37.099872
MEAN_MOTION    = 15.50065759
ECCENTRICITY   = .00125625
INCLINATION    = 51.6301
RA_OF_ASC_NODE = 188.0281
ARG_OF_PERICENTER = 106.0174
MEAN_ANOMALY   = 254.2200

EPHEMERIS_TYPE = 0
CLASSIFICATION_TYPE = U
NORAD_CAT_ID   = 67685
ELEMENT_SET_NO = 999
REV_AT_EPOCH   = 115
BSTAR          = .78217893E-3
MEAN_MOTION_DOT = .44668E-3
MEAN_MOTION_DDOT = 0

CCSDS_OMM_VERS = 2.0
CREATION_DATE  = 
ORIGINATOR     = 

OBJECT_NAME    = ISS OBJECT YC
OBJECT_ID      = 1998-067YC
CENTER_NAME    = EARTH
REF_FRAME      = TEME
TIME_SYSTEM    = UTC
MEAN_ELEMENT_THEORY = SGP/SGP4

EPOCH          = 2026-02-14T06:29:48.601824
MEAN_MOTION    = 15.50225641
ECCENTRICITY   = .00077583
INCLINATION    = 51.6307
RA_OF_ASC_NODE = 188.0255
ARG_OF_PERICENTER = 80.7495
MEAN_ANOMALY   = 279.4371

EPHEMERIS_TYPE = 0
CLASSIFICATION_TYPE = U
NORAD_CAT_ID   = 67686
ELEMENT_SET_NO = 999
REV_AT_EPOCH   = 115
BSTAR          = .90917752E-3
MEAN_MOTION_DOT = .52245E-3
MEAN_MOTION_DDOT = 0

CCSDS_OMM_VERS = 2.0
CREATION_DATE  = 
ORIGINATOR     = 

OBJECT_NAME    = LEOPARD
OBJECT_ID      = 1998-067YD
CENTER_NAME    = EARTH
REF_FRAME      = TEME
TIME_SYSTEM    = UTC
MEAN_ELEMENT_THEORY = SGP/SGP4

EPOCH          = 2026-02-14T06:31:00.616224
MEAN_MOTION    = 15.50007453
ECCENTRICITY   = .00078276
INCLINATION    = 51.6306
RA_OF_ASC_NODE = 188.0303
ARG_OF_PERICENTER = 82.6227
MEAN_ANOMALY   = 277.5652

EPHEMERIS_TYPE = 0
CLASSIFICATION_TYPE = U
NORAD_CAT_ID   = 67687
ELEMENT_SET_NO = 999
REV_AT_EPOCH   = 107
BSTAR          = .74265914E-3
MEAN_MOTION_DOT = .42208E-3
MEAN_MOTION_DDOT = 0

CCSDS_OMM_VERS = 2.0
CREATION_DATE  = 
ORIGINATOR     = 

OBJECT_NAME    = ISS OBJECT YE
OBJECT_ID      = 1998-067YE
CENTER_NAME    = EARTH
REF_FRAME      = TEME
TIME_SYSTEM    = UTC
MEAN_ELEMENT_THEORY = SGP/SGP4

EPOCH          = 2026-02-14T06:30:05.263200
MEAN_MOTION    = 15.50158147
ECCENTRICITY   = .00077404
INCLINATION    = 51.6308
RA_OF_ASC_NODE = 188.0270
ARG_OF_PERICENTER = 81.3262
MEAN_ANOMALY   = 278.8604

EPHEMERIS_TYPE = 0
CLASSIFICATION_TYPE = U
NORAD_CAT_ID   = 67688
ELEMENT_SET_NO = 999
REV_AT_EPOCH   = 107
BSTAR          = .85323832E-3
MEAN_MOTION_DOT = .48863E-3
MEAN_MOTION_DDOT = 0

CCSDS_OMM_VERS = 2.0
CREATION_DATE  = 
ORIGINATOR     = 

OBJECT_NAME    = PRC TEST SPACECRAFT 4
OBJECT_ID      = 2026-024A
CENTER_NAME    = EARTH
REF_FRAME      = TEME
TIME_SYSTEM    = UTC
MEAN_ELEMENT_THEORY = SGP/SGP4

EPOCH          = 2026-02-14T05:56:45.400416
MEAN_MOTION    = 14.91671582
ECCENTRICITY   = .00062129
INCLINATION    = 49.9853
RA_OF_ASC_NODE = 132.8131
ARG_OF_PERICENTER = 269.3773
MEAN_ANOMALY   = 90.6457

EPHEMERIS_TYPE = 0
CLASSIFICATION_TYPE = U
NORAD_CAT_ID   = 67689
ELEMENT_SET_NO = 999
REV_AT_EPOCH   = 108
BSTAR          = .21787812E-4
MEAN_MOTION_DOT = -.23E-6
MEAN_MOTION_DDOT = 0

